{
  "norad_id": 66198,
  "name": "STARLINK-35259",
  "history": [
    {
      "epoch": "2026-03-28T22:11:09.246912Z",
      "apogee_km": 476.1405779113684,
      "perigee_km": 474.19286899316376,
      "latitude_deg": 4.3731795235054475e-05,
      "longitude_deg": -2.860574769525745,
      "height_km": 475.9528585059624,
      "semi_major_axis_km": 6853.303723452266,
      "eccentricity": 0.0001421,
      "inclination_deg": 53.16,
      "raan_deg": 156.2658,
      "arg_perigee_deg": 83.411,
      "mean_anomaly_deg": 276.7053,
      "mean_motion_rev_day": 15.30216192
    },
    {
      "epoch": "2026-03-28T22:11:09.247776Z",
      "apogee_km": 476.1407835104801,
      "perigee_km": 474.19266339405294,
      "latitude_deg": 4.098228754519656e-05,
      "longitude_deg": -2.860580427882111,
      "height_km": 475.95283491441404,
      "semi_major_axis_km": 6853.303723452266,
      "eccentricity": 0.00014213,
      "inclination_deg": 53.16,
      "raan_deg": 156.2658,
      "arg_perigee_deg": 83.411,
      "mean_anomaly_deg": 276.7053,
      "mean_motion_rev_day": 15.30216192
    },
    {
      "epoch": "2026-03-30T13:22:29.431776Z",
      "apogee_km": 476.206424155841,
      "perigee_km": 474.26952332076326,
      "latitude_deg": 1.6508529594538486e-05,
      "longitude_deg": 120.11126988367312,
      "height_km": 475.95637810158297,
      "semi_major_axis_km": 6853.374973738301,
      "eccentricity": 0.00014131,
      "inclination_deg": 53.1602,
      "raan_deg": 148.6812,
      "arg_perigee_deg": 79.317,
      "mean_anomaly_deg": 280.799,
      "mean_motion_rev_day": 15.30192329
    }
  ]
}